start=new Date('2022-06-11T00:00:00.000Z').valueOf();
sats=[{"OBJECT_NAME":"STARLINK-3119","TLE_LINE1":"1 49145U 21082R   22161.88216113  .00000544  00000-0  55487-4 0  9994","ECCENTRICITY":"0.00024420","COUNTRY_CODE":"US","OBJECT_TYPE":"PAYLOAD","NORAD_CAT_ID":"49145","BSTAR":"0.00005548700000","PERIOD":"96.210","LAUNCH_DATE":"2021-09-14","OBJECT_ID":"2021-082R","MEAN_MOTION":"14.96718543","RA_OF_ASC_NODE":"102.4546","EPOCH":"2022-06-10T21:10:18.721632","DECAY_DATE":null,"REV_AT_EPOCH":"4209","CENTER_NAME":"EARTH","TIME_SYSTEM":"UTC","RCS_SIZE":"LARGE","GP_ID":"205864589","CLASSIFICATION_TYPE":"U","ARG_OF_PERICENTER":"269.5233","APOAPSIS":"578.744","MEAN_MOTION_DDOT":"0.0000000000000","MEAN_ANOMALY":"90.5646","SITE":"AFWTR","ELEMENT_SET_NO":"999","FILE":"3490466","PERIAPSIS":"575.347","REF_FRAME":"TEME","MEAN_MOTION_DOT":"0.00000544","TLE_LINE2":"2 49145  69.9965 102.4546 0002442 269.5233  90.5646 14.96718543 42096","SEMIMAJOR_AXIS":"6955.181","EPHEMERIS_TYPE":"0","INCLINATION":"69.9965","MEAN_ELEMENT_THEORY":"SGP4"},{"EPHEMERIS_TYPE":"0","SEMIMAJOR_AXIS":"6955.174","INCLINATION":"69.9997","MEAN_ELEMENT_THEORY":"SGP4","FILE":"3490466","ELEMENT_SET_NO":"999","REF_FRAME":"TEME","PERIAPSIS":"574.910","TLE_LINE2":"2 49146  69.9997 122.7037 0003061 274.4122  85.6687 14.96720574 42752","MEAN_MOTION_DOT":"0.00001425","MEAN_MOTION_DDOT":"0.0000000000000","APOAPSIS":"579.168","MEAN_ANOMALY":"85.6687","SITE":"AFWTR","GP_ID":"205864839","CLASSIFICATION_TYPE":"U","ARG_OF_PERICENTER":"274.4122","EPOCH":"2022-06-10T21:01:23.972160","DECAY_DATE":null,"REV_AT_EPOCH":"4275","CENTER_NAME":"EARTH","TIME_SYSTEM":"UTC","RCS_SIZE":"LARGE","OBJECT_ID":"2021-082S","MEAN_MOTION":"14.96720574","RA_OF_ASC_NODE":"122.7037","NORAD_CAT_ID":"49146","BSTAR":"0.00013243000000","LAUNCH_DATE":"2021-09-14","PERIOD":"96.210","TLE_LINE1":"1 49146U 21082S   22161.87597190  .00001425  00000-0  13243-3 0  9993","OBJECT_NAME":"STARLINK-3116","ECCENTRICITY":"0.00030610","COUNTRY_CODE":"US","OBJECT_TYPE":"PAYLOAD"},{"EPOCH":"2022-06-10T21:21:30.847104","DECAY_DATE":null,"REV_AT_EPOCH":"4210","TIME_SYSTEM":"UTC","CENTER_NAME":"EARTH","RCS_SIZE":"LARGE","OBJECT_ID":"2021-082T","MEAN_MOTION":"14.96708422","RA_OF_ASC_NODE":"102.4056","NORAD_CAT_ID":"49147","BSTAR":"0.00008195500000","LAUNCH_DATE":"2021-09-14","PERIOD":"96.211","TLE_LINE1":"1 49147U 21082T   22161.88994036  .00000846  00000-0  81955-4 0  9997","OBJECT_NAME":"STARLINK-3071","ECCENTRICITY":"0.00029530","COUNTRY_CODE":"US","OBJECT_TYPE":"PAYLOAD","EPHEMERIS_TYPE":"0","SEMIMAJOR_AXIS":"6955.212","INCLINATION":"70.0001","MEAN_ELEMENT_THEORY":"SGP4","FILE":"3490466","ELEMENT_SET_NO":"999","PERIAPSIS":"575.023","REF_FRAME":"TEME","TLE_LINE2":"2 49147  70.0001 102.4056 0002953 275.4862  84.5959 14.96708422 42106","MEAN_MOTION_DOT":"0.00000846","MEAN_MOTION_DDOT":"0.0000000000000","APOAPSIS":"579.131","SITE":"AFWTR","MEAN_ANOMALY":"84.5959","GP_ID":"205865091","CLASSIFICATION_TYPE":"U","ARG_OF_PERICENTER":"275.4862"},{"ARG_OF_PERICENTER":"271.0675","CLASSIFICATION_TYPE":"U","GP_ID":"205865342","MEAN_ANOMALY":"89.0118","SITE":"AFWTR","MEAN_MOTION_DDOT":"0.0000000000000","APOAPSIS":"579.237","TLE_LINE2":"2 49148  69.9983 123.3874 0003189 271.0675  89.0118 14.96727061 41554","MEAN_MOTION_DOT":"-0.00001810","REF_FRAME":"TEME","PERIAPSIS":"574.801","FILE":"3490466","ELEMENT_SET_NO":"999","INCLINATION":"69.9983","MEAN_ELEMENT_THEORY":"SGP4","EPHEMERIS_TYPE":"0","SEMIMAJOR_AXIS":"6955.154","OBJECT_TYPE":"PAYLOAD","COUNTRY_CODE":"US","TLE_LINE1":"1 49148U 21082U   22161.60378519 -.00001810  00000-0 -15013-3 0  9995","OBJECT_NAME":"STARLINK-3048","ECCENTRICITY":"0.00031890","LAUNCH_DATE":"2021-09-14","PERIOD":"96.210","BSTAR":"-0.00015013000000","NORAD_CAT_ID":"49148","RA_OF_ASC_NODE":"123.3874","MEAN_MOTION":"14.96727061","OBJECT_ID":"2021-082U","RCS_SIZE":"LARGE","REV_AT_EPOCH":"4155","CENTER_NAME":"EARTH","TIME_SYSTEM":"UTC","DECAY_DATE":null,"EPOCH":"2022-06-10T14:29:27.040416"},{"OBJECT_TYPE":"PAYLOAD","COUNTRY_CODE":"US","ECCENTRICITY":"0.00034360","TLE_LINE1":"1 49149U 21082V   22161.65256662  .00000909  00000-0  83979-4 0  9998","OBJECT_NAME":"STARLINK-3053","PERIOD":"96.107","LAUNCH_DATE":"2021-09-14","BSTAR":"0.00008397900000","NORAD_CAT_ID":"49149","RA_OF_ASC_NODE":"143.7490","MEAN_MOTION":"14.98336659","OBJECT_ID":"2021-082V","RCS_SIZE":"LARGE","REV_AT_EPOCH":"4225","TIME_SYSTEM":"UTC","CENTER_NAME":"EARTH","DECAY_DATE":null,"EPOCH":"2022-06-10T15:39:41.755968","ARG_OF_PERICENTER":"276.0979","CLASSIFICATION_TYPE":"U","GP_ID":"205864090","SITE":"AFWTR","MEAN_ANOMALY":"83.9788","MEAN_MOTION_DDOT":"0.0000000000000","APOAPSIS":"574.425","MEAN_MOTION_DOT":"0.00000909","TLE_LINE2":"2 49149  69.9993 143.7490 0003436 276.0979  83.9788 14.98336659 42258","PERIAPSIS":"569.649","REF_FRAME":"TEME","ELEMENT_SET_NO":"999","FILE":"3490466","MEAN_ELEMENT_THEORY":"SGP4","INCLINATION":"69.9993","SEMIMAJOR_AXIS":"6950.172","EPHEMERIS_TYPE":"0"},{"RCS_SIZE":"LARGE","REV_AT_EPOCH":"4225","CENTER_NAME":"EARTH","TIME_SYSTEM":"UTC","DECAY_DATE":null,"EPOCH":"2022-06-10T15:32:47.941440","RA_OF_ASC_NODE":"143.7653","MEAN_MOTION":"14.98340985","OBJECT_ID":"2021-082W","PERIOD":"96.106","LAUNCH_DATE":"2021-09-14","BSTAR":"-0.00004790300000","NORAD_CAT_ID":"49150","OBJECT_TYPE":"PAYLOAD","COUNTRY_CODE":"US","ECCENTRICITY":"0.00034250","TLE_LINE1":"1 49150U 21082W   22161.64777710 -.00000665  00000-0 -47903-4 0  9999","OBJECT_NAME":"STARLINK-3104","INCLINATION":"69.9995","MEAN_ELEMENT_THEORY":"SGP4","SEMIMAJOR_AXIS":"6950.159","EPHEMERIS_TYPE":"0","MEAN_MOTION_DOT":"-0.00000665","TLE_LINE2":"2 49150  69.9995 143.7653 0003425 275.8551  84.2217 14.98340985 42252","PERIAPSIS":"569.643","REF_FRAME":"TEME","ELEMENT_SET_NO":"999","FILE":"3490466","MEAN_ANOMALY":"84.2217","SITE":"AFWTR","MEAN_MOTION_DDOT":"0.0000000000000","APOAPSIS":"574.404","ARG_OF_PERICENTER":"275.8551","CLASSIFICATION_TYPE":"U","GP_ID":"205864340"},{"GP_ID":"205865591","CLASSIFICATION_TYPE":"U","ARG_OF_PERICENTER":"275.8874","APOAPSIS":"579.141","MEAN_MOTION_DDOT":"0.0000000000000","MEAN_ANOMALY":"84.1944","SITE":"AFWTR","ELEMENT_SET_NO":"999","FILE":"3490466","REF_FRAME":"TEME","PERIAPSIS":"574.997","MEAN_MOTION_DOT":"0.00000613","TLE_LINE2":"2 49151  69.9973 102.4775 0002979 275.8874  84.1944 14.96710936 43293","SEMIMAJOR_AXIS":"6955.204","EPHEMERIS_TYPE":"0","MEAN_ELEMENT_THEORY":"SGP4","INCLINATION":"69.9973","TLE_LINE1":"1 49151U 21082X   22161.87240741  .00000613  00000-0  61533-4 0  9990","OBJECT_NAME":"STARLINK-3102","ECCENTRICITY":"0.00029790","COUNTRY_CODE":"US","OBJECT_TYPE":"PAYLOAD","NORAD_CAT_ID":"49151","BSTAR":"0.00006153300000","PERIOD":"96.211","LAUNCH_DATE":"2021-09-14","OBJECT_ID":"2021-082X","MEAN_MOTION":"14.96710936","RA_OF_ASC_NODE":"102.4775","DECAY_DATE":null,"EPOCH":"2022-06-10T20:56:16.000224","REV_AT_EPOCH":"4329","TIME_SYSTEM":"UTC","CENTER_NAME":"EARTH","RCS_SIZE":"LARGE"},{"SEMIMAJOR_AXIS":"6955.203","EPHEMERIS_TYPE":"0","INCLINATION":"69.9988","MEAN_ELEMENT_THEORY":"SGP4","REF_FRAME":"TEME","PERIAPSIS":"574.983","MEAN_MOTION_DOT":"0.00001325","TLE_LINE2":"2 49152  69.9988 102.5155 0002997 276.3142  83.7675 14.96711388 43217","ELEMENT_SET_NO":"999","FILE":"3490466","MEAN_MOTION_DDOT":"0.0000000000000","APOAPSIS":"579.152","SITE":"AFWTR","MEAN_ANOMALY":"83.7675","ARG_OF_PERICENTER":"276.3142","GP_ID":"205865842","CLASSIFICATION_TYPE":"U","RCS_SIZE":"LARGE","EPOCH":"2022-06-10T20:20:13.172352","DECAY_DATE":null,"REV_AT_EPOCH":"4321","CENTER_NAME":"EARTH","TIME_SYSTEM":"UTC","RA_OF_ASC_NODE":"102.5155","OBJECT_ID":"2021-082Y","MEAN_MOTION":"14.96711388","BSTAR":"0.00012376000000","PERIOD":"96.211","LAUNCH_DATE":"2021-09-14","NORAD_CAT_ID":"49152","OBJECT_TYPE":"PAYLOAD","ECCENTRICITY":"0.00029970","TLE_LINE1":"1 49152U 21082Y   22161.84737468  .00001325  00000-0  12376-3 0  9996","OBJECT_NAME":"STARLINK-3081","COUNTRY_CODE":"US"},{"OBJECT_TYPE":"PAYLOAD","COUNTRY_CODE":"US","TLE_LINE1":"1 49153U 21082Z   22161.86262912 -.00000359  00000-0 -23326-4 0  9992","OBJECT_NAME":"STARLINK-3072","ECCENTRICITY":"0.00032010","PERIOD":"96.210","LAUNCH_DATE":"2021-09-14","BSTAR":"-0.00002332600000","NORAD_CAT_ID":"49153","RA_OF_ASC_NODE":"102.5008","MEAN_MOTION":"14.96719562","OBJECT_ID":"2021-082Z","RCS_SIZE":"LARGE","REV_AT_EPOCH":"4330","TIME_SYSTEM":"UTC","CENTER_NAME":"EARTH","DECAY_DATE":null,"EPOCH":"2022-06-10T20:42:11.155968","ARG_OF_PERICENTER":"276.8647","CLASSIFICATION_TYPE":"U","GP_ID":"205864590","SITE":"AFWTR","MEAN_ANOMALY":"83.2147","MEAN_MOTION_DDOT":"0.0000000000000","APOAPSIS":"579.269","MEAN_MOTION_DOT":"-0.00000359","TLE_LINE2":"2 49153  69.9972 102.5008 0003201 276.8647  83.2147 14.96719562 43303","REF_FRAME":"TEME","PERIAPSIS":"574.816","ELEMENT_SET_NO":"999","FILE":"3490466","MEAN_ELEMENT_THEORY":"SGP4","INCLINATION":"69.9972","SEMIMAJOR_AXIS":"6955.178","EPHEMERIS_TYPE":"0"},{"REV_AT_EPOCH":"4267","CENTER_NAME":"EARTH","TIME_SYSTEM":"UTC","EPOCH":"2022-06-10T20:47:28.484160","DECAY_DATE":null,"RCS_SIZE":"LARGE","MEAN_MOTION":"14.96702521","OBJECT_ID":"2021-082AA","RA_OF_ASC_NODE":"122.7273","NORAD_CAT_ID":"49154","LAUNCH_DATE":"2021-09-14","PERIOD":"96.212","BSTAR":"0.00015760000000","COUNTRY_CODE":"US","OBJECT_NAME":"STARLINK-3068","TLE_LINE1":"1 49154U 21082AA  22161.86630190  .00001712  00000-0  15760-3 0  9994","ECCENTRICITY":"0.00031650","OBJECT_TYPE":"PAYLOAD","INCLINATION":"69.9985","MEAN_ELEMENT_THEORY":"SGP4","EPHEMERIS_TYPE":"0","SEMIMAJOR_AXIS":"6955.230","FILE":"3490466","ELEMENT_SET_NO":"999","TLE_LINE2":"2 49154  69.9985 122.7273 0003165 273.5380  86.5416 14.96702521 42674","MEAN_MOTION_DOT":"0.00001712","REF_FRAME":"TEME","PERIAPSIS":"574.894","SITE":"AFWTR","MEAN_ANOMALY":"86.5416","MEAN_MOTION_DDOT":"0.0000000000000","APOAPSIS":"579.297","CLASSIFICATION_TYPE":"U","GP_ID":"205864840","ARG_OF_PERICENTER":"273.5380"}];
